CCSDS_OMM_VERS = 2.0
CREATION_DATE  = 
ORIGINATOR     = 

OBJECT_NAME    = STARLINK-36675
OBJECT_ID      = 2026-022R
CENTER_NAME    = EARTH
REF_FRAME      = TEME
TIME_SYSTEM    = UTC
MEAN_ELEMENT_THEORY = SGP/SGP4

EPOCH          = 2026-03-01T01:41:07.262880
MEAN_MOTION    = 15.75238812
ECCENTRICITY   = .00020436
INCLINATION    = 97.2820
RA_OF_ASC_NODE = 93.6449
ARG_OF_PERICENTER = 84.2125
MEAN_ANOMALY   = 275.9373

EPHEMERIS_TYPE = 0
CLASSIFICATION_TYPE = U
NORAD_CAT_ID   = 67663
ELEMENT_SET_NO = 999
REV_AT_EPOCH   = 419
BSTAR          = .57572925E-3
MEAN_MOTION_DOT = .86809E-3
MEAN_MOTION_DDOT = 0

CCSDS_OMM_VERS = 2.0
CREATION_DATE  = 
ORIGINATOR     = 

OBJECT_NAME    = STARLINK-36404
OBJECT_ID      = 2026-022S
CENTER_NAME    = EARTH
REF_FRAME      = TEME
TIME_SYSTEM    = UTC
MEAN_ELEMENT_THEORY = SGP/SGP4

EPOCH          = 2026-03-01T01:36:32.701824
MEAN_MOTION    = 15.75236659
ECCENTRICITY   = .00015843
INCLINATION    = 97.2845
RA_OF_ASC_NODE = 93.6493
ARG_OF_PERICENTER = 99.3372
MEAN_ANOMALY   = 260.8073

EPHEMERIS_TYPE = 0
CLASSIFICATION_TYPE = U
NORAD_CAT_ID   = 67664
ELEMENT_SET_NO = 999
REV_AT_EPOCH   = 419
BSTAR          = .74274239E-3
MEAN_MOTION_DOT = .112351E-2
MEAN_MOTION_DDOT = 0

CCSDS_OMM_VERS = 2.0
CREATION_DATE  = 
ORIGINATOR     = 

OBJECT_NAME    = STARLINK-36399
OBJECT_ID      = 2026-022T
CENTER_NAME    = EARTH
REF_FRAME      = TEME
TIME_SYSTEM    = UTC
MEAN_ELEMENT_THEORY = SGP/SGP4

EPOCH          = 2026-03-01T03:07:00.356736
MEAN_MOTION    = 15.75261437
ECCENTRICITY   = .00011927
INCLINATION    = 97.2861
RA_OF_ASC_NODE = 93.7180
ARG_OF_PERICENTER = 72.6704
MEAN_ANOMALY   = 287.4692

EPHEMERIS_TYPE = 0
CLASSIFICATION_TYPE = U
NORAD_CAT_ID   = 67665
ELEMENT_SET_NO = 999
REV_AT_EPOCH   = 420
BSTAR          = .11739447E-2
MEAN_MOTION_DOT = .179248E-2
MEAN_MOTION_DDOT = 0

CCSDS_OMM_VERS = 2.0
CREATION_DATE  = 
ORIGINATOR     = 

OBJECT_NAME    = STARLINK-36365
OBJECT_ID      = 2026-022U
CENTER_NAME    = EARTH
REF_FRAME      = TEME
TIME_SYSTEM    = UTC
MEAN_ELEMENT_THEORY = SGP/SGP4

EPOCH          = 2026-03-01T01:33:29.842272
MEAN_MOTION    = 15.75245872
ECCENTRICITY   = .00019677
INCLINATION    = 97.2842
RA_OF_ASC_NODE = 93.6527
ARG_OF_PERICENTER = 99.9641
MEAN_ANOMALY   = 260.1846

EPHEMERIS_TYPE = 0
CLASSIFICATION_TYPE = U
NORAD_CAT_ID   = 67666
ELEMENT_SET_NO = 999
REV_AT_EPOCH   = 419
BSTAR          = .81835568E-3
MEAN_MOTION_DOT = .124025E-2
MEAN_MOTION_DDOT = 0

CCSDS_OMM_VERS = 2.0
CREATION_DATE  = 
ORIGINATOR     = 

OBJECT_NAME    = STARLINK-36622
OBJECT_ID      = 2026-022V
CENTER_NAME    = EARTH
REF_FRAME      = TEME
TIME_SYSTEM    = UTC
MEAN_ELEMENT_THEORY = SGP/SGP4

EPOCH          = 2026-03-01T01:30:57.024864
MEAN_MOTION    = 15.75213303
ECCENTRICITY   = .0001353
INCLINATION    = 97.2842
RA_OF_ASC_NODE = 93.6550
ARG_OF_PERICENTER = 108.0209
MEAN_ANOMALY   = 252.1203

EPHEMERIS_TYPE = 0
CLASSIFICATION_TYPE = U
NORAD_CAT_ID   = 67667
ELEMENT_SET_NO = 999
REV_AT_EPOCH   = 419
BSTAR          = .92420466E-3
MEAN_MOTION_DOT = .140147E-2
MEAN_MOTION_DDOT = 0

CCSDS_OMM_VERS = 2.0
CREATION_DATE  = 
ORIGINATOR     = 

OBJECT_NAME    = STARLINK-36625
OBJECT_ID      = 2026-022W
CENTER_NAME    = EARTH
REF_FRAME      = TEME
TIME_SYSTEM    = UTC
MEAN_ELEMENT_THEORY = SGP/SGP4

EPOCH          = 2026-03-01T01:28:55.260480
MEAN_MOTION    = 15.75212580
ECCENTRICITY   = .00017432
INCLINATION    = 97.2833
RA_OF_ASC_NODE = 93.6564
ARG_OF_PERICENTER = 89.2957
MEAN_ANOMALY   = 270.8508

EPHEMERIS_TYPE = 0
CLASSIFICATION_TYPE = U
NORAD_CAT_ID   = 67668
ELEMENT_SET_NO = 999
REV_AT_EPOCH   = 419
BSTAR          = .88123537E-3
MEAN_MOTION_DOT = .133519E-2
MEAN_MOTION_DDOT = 0

CCSDS_OMM_VERS = 2.0
CREATION_DATE  = 
ORIGINATOR     = 

OBJECT_NAME    = STARLINK-36639
OBJECT_ID      = 2026-022X
CENTER_NAME    = EARTH
REF_FRAME      = TEME
TIME_SYSTEM    = UTC
MEAN_ELEMENT_THEORY = SGP/SGP4

EPOCH          = 2026-03-01T01:26:22.659072
MEAN_MOTION    = 15.75197635
ECCENTRICITY   = .00013794
INCLINATION    = 97.2842
RA_OF_ASC_NODE = 93.6593
ARG_OF_PERICENTER = 23.7350
MEAN_ANOMALY   = 336.3978

EPHEMERIS_TYPE = 0
CLASSIFICATION_TYPE = U
NORAD_CAT_ID   = 67669
ELEMENT_SET_NO = 999
REV_AT_EPOCH   = 419
BSTAR          = .7680236E-3
MEAN_MOTION_DOT = .116033E-2
MEAN_MOTION_DDOT = 0

CCSDS_OMM_VERS = 2.0
CREATION_DATE  = 
ORIGINATOR     = 

OBJECT_NAME    = STARLINK-36596
OBJECT_ID      = 2026-022Y
CENTER_NAME    = EARTH
REF_FRAME      = TEME
TIME_SYSTEM    = UTC
MEAN_ELEMENT_THEORY = SGP/SGP4

EPOCH          = 2026-03-01T01:23:50.241696
MEAN_MOTION    = 15.75241834
ECCENTRICITY   = .00018984
INCLINATION    = 97.2833
RA_OF_ASC_NODE = 93.6611
ARG_OF_PERICENTER = 106.9614
MEAN_ANOMALY   = 253.1859

EPHEMERIS_TYPE = 0
CLASSIFICATION_TYPE = U
NORAD_CAT_ID   = 67670
ELEMENT_SET_NO = 999
REV_AT_EPOCH   = 419
BSTAR          = .9085329E-3
MEAN_MOTION_DOT = .137906E-2
MEAN_MOTION_DDOT = 0

CCSDS_OMM_VERS = 2.0
CREATION_DATE  = 
ORIGINATOR     = 

OBJECT_NAME    = STARLINK-36297
OBJECT_ID      = 2026-022Z
CENTER_NAME    = EARTH
REF_FRAME      = TEME
TIME_SYSTEM    = UTC
MEAN_ELEMENT_THEORY = SGP/SGP4

EPOCH          = 2026-03-01T01:20:47.294016
MEAN_MOTION    = 15.75210025
ECCENTRICITY   = .00014773
INCLINATION    = 97.2827
RA_OF_ASC_NODE = 93.6637
ARG_OF_PERICENTER = 106.8879
MEAN_ANOMALY   = 253.2548

EPHEMERIS_TYPE = 0
CLASSIFICATION_TYPE = U
NORAD_CAT_ID   = 67671
ELEMENT_SET_NO = 999
REV_AT_EPOCH   = 419
BSTAR          = .8069633E-3
MEAN_MOTION_DOT = .122075E-2
MEAN_MOTION_DDOT = 0

CCSDS_OMM_VERS = 2.0
CREATION_DATE  = 
ORIGINATOR     = 

OBJECT_NAME    = STARLINK-36616
OBJECT_ID      = 2026-022AA
CENTER_NAME    = EARTH
REF_FRAME      = TEME
TIME_SYSTEM    = UTC
MEAN_ELEMENT_THEORY = SGP/SGP4

EPOCH          = 2026-03-01T01:22:50.963520
MEAN_MOTION    = 15.75212966
ECCENTRICITY   = .00017473
INCLINATION    = 97.2839
RA_OF_ASC_NODE = 93.6622
ARG_OF_PERICENTER = 78.3053
MEAN_ANOMALY   = 281.8408

EPHEMERIS_TYPE = 0
CLASSIFICATION_TYPE = U
NORAD_CAT_ID   = 67672
ELEMENT_SET_NO = 999
REV_AT_EPOCH   = 419
BSTAR          = .14929325E-2
MEAN_MOTION_DOT = .22885E-2
MEAN_MOTION_DDOT = 0

CCSDS_OMM_VERS = 2.0
CREATION_DATE  = 
ORIGINATOR     = 

OBJECT_NAME    = COSMOS 2600
OBJECT_ID      = 2026-023A
CENTER_NAME    = EARTH
REF_FRAME      = TEME
TIME_SYSTEM    = UTC
MEAN_ELEMENT_THEORY = SGP/SGP4

EPOCH          = 2026-02-28T07:05:07.619712
MEAN_MOTION    = 15.83528492
ECCENTRICITY   = .00032481
INCLINATION    = 96.6452
RA_OF_ASC_NODE = 135.2352
ARG_OF_PERICENTER = 47.0444
MEAN_ANOMALY   = 313.1099

EPHEMERIS_TYPE = 0
CLASSIFICATION_TYPE = U
NORAD_CAT_ID   = 67674
ELEMENT_SET_NO = 999
REV_AT_EPOCH   = 356
BSTAR          = .32745834E-3
MEAN_MOTION_DOT = .71571E-3
MEAN_MOTION_DDOT = 0

CCSDS_OMM_VERS = 2.0
CREATION_DATE  = 
ORIGINATOR     = 

OBJECT_NAME    = 2026-023B
OBJECT_ID      = 2026-023B
CENTER_NAME    = EARTH
REF_FRAME      = TEME
TIME_SYSTEM    = UTC
MEAN_ELEMENT_THEORY = SGP/SGP4

EPOCH          = 2026-03-01T12:09:43.674336
MEAN_MOTION    = 15.22761858
ECCENTRICITY   = .0018988
INCLINATION    = 96.6378
RA_OF_ASC_NODE = 134.4030
ARG_OF_PERICENTER = 159.7115
MEAN_ANOMALY   = 200.4882

EPHEMERIS_TYPE = 0
CLASSIFICATION_TYPE = U
NORAD_CAT_ID   = 67675
ELEMENT_SET_NO = 999
REV_AT_EPOCH   = 361
BSTAR          = .53857E-3
MEAN_MOTION_DOT = .12588E-3
MEAN_MOTION_DDOT = 0

